#dP2018  3  6  0  0  0.00000000      96 __u+U ITR00 FIT  IAC
## 1991 172800.00000000   900.00000000 58183 0.0000000000000
+   87   C01C02C03C04C05C06C07C08C09C10C11C12C14E01E02E03E04
+        E05E07E08E09E11E12E14E18E19E24E26E30G01G02G03G04G05
+        G06G07G08G09G10G11G12G13G14G15G16G17G19G20G21G22G23
+        G24G25G26G27G28G29G30G31G32J01J02J03R01R02R03R04R05
+        R06R07R08R09R10R11R13R14R15R16R17R18R19R20R21R22R23
+        R24R26  0  0  0  0  0  0  0  0  0  0  0  0  0  0  0
++        12 11 12 12 11  9  9  9  8  9  7  8  7  6  6  6  7
++         7  6  6  7  7  7  7  6  7  7  6  6  3  3  3  5  4
++         4  3  3  4  3  3  3  4  3  3  3  3  3  3  3  3  3
++         3  4  3  3  3  4  3  3  3 11 11 11  5  5  5  5  6
++         5  5  5  5  5  5  6  5  5  5  5  5  5  5  5  5  5
++         6 10  0  0  0  0  0  0  0  0  0  0  0  0  0  0  0
%c M  cc GPS ccc cccc cccc cccc cccc ccccc ccccc ccccc ccccc
%c cc cc ccc ccc cccc cccc cccc cccc ccccc ccccc ccccc ccccc
%f  0.0000000  0.000000000  0.00000000000  0.000000000000000
%f  0.0000000  0.000000000  0.00000000000  0.000000000000000
%i    0    0    0    0      0      0      0      0         0
%i    0    0    0    0      0      0      0      0         0
/* INFORMATION & ANALYSIS CENTER (IAC) OF MCC   (RAPID DATA)
/* S/V CLOCKS ARE ALIGNED TO GPS & GLONASS TIME RESPECTIVELY
/* USING THE BROADCAST EPHEMERIS                            
/* PCV:IGS14_1984 OL/AL:FES2004  NONE     YN ORB:CoN CLK:CoN
*  2018 03 06 18 15  0.00000000
PC01 -32312.938358  27072.674963   -734.583019    449.893972
PC02   4390.325316  41926.779747   1194.513326   -273.056399
PC03 -14772.954564  39517.860408    572.378159     34.290563
PC04 -39598.170745  14455.534085   -127.347829   -140.757685
PC05  21907.396456  36022.009343   1500.599710   -163.498565
PC06 -17534.547363  38516.935296   1712.924235   -679.076389
PC07  -8079.319817  27116.020063 -31034.550453   -335.518558
PC08 -22124.980183  21229.679636  28902.998074    213.731128
PC09  -9171.707420  39510.198322 -11948.782909   -340.773925
PC10   4640.917468  33896.365210 -24317.051782    -63.795646
PC11 -20415.999214  17976.611814   6118.147933   -417.279557
PC12 -24176.712022   5999.826491 -12428.226220    389.512219
PC14 -10969.016707  19023.266883  17308.163566    266.389983
PE01    538.255259 -20055.649412  21758.697695   -291.923698
PE02   -509.772296  20078.021685 -21751.575667      6.689484
PE03  -8767.108972  28266.457919    225.852878     -6.597326
PE04  -5308.320423 -23734.982364  16870.807705     11.041041
PE05 -17747.594881  16251.772150  17238.405411    309.281566
PE07  16320.167424   5249.540243 -24124.369205     72.714638
PE08   5425.766230  23670.977966 -16916.329531   6629.232080
PE09 -16213.956994  -5129.530449  24233.018558   6856.367140
PE11 -26832.447086  -2011.538112 -12355.098714   1845.129391
PE12 -10860.834104 -13855.020823 -23787.277049   3653.062790
PE14   6433.285927 -24133.596557 -15434.435894   6620.191901
PE18 -18330.693539  20890.529413   3104.912239   6378.335754
PE19   9839.717018 -27836.070502  -2061.749997     20.060442
PE24 -23427.559593 -13422.864158 -12117.718488   6827.384616
PE26  26998.376610 -10601.550934  -5896.676399   6195.827686
PE30  16232.615486  23819.145259  -6776.419924   6024.117175
PG01 -18612.339102 -13569.325287 -13615.508363    -32.571616
PG02  -4955.439893  15067.963751  21841.844628    181.806104
PG03 -12802.298669 -21995.424343   7673.448613     22.970378
PG04  10642.436897 -12561.110337  20530.305625     42.419715
PG05    523.750247  24265.074383  10439.483821    -12.730584
PG06 -18218.012805   8428.328865  17436.844980    413.317672
PG07 -26193.651284  -5650.202070   -538.383959    227.038033
PG08  -1837.816127 -18038.199880 -19305.601739    -93.467575
PG09 -18445.634049    497.558720  19071.917431    505.161566
PG10  13489.547869  -7322.357525 -21629.214233    167.401167
PG11 -15169.204944 -11892.186281 -18778.866222   -737.121646
PG12  10336.620017  23757.910146   6132.393436    346.795066
PG13  -8116.023341  20632.546462 -14747.534671    -95.573531
PG14  18156.636711 -19188.325084   1904.613377    -94.809482
PG15   4393.625952  17921.213603 -19182.504877   -356.616029
PG16   1269.383168 -24125.425354  10382.318253     30.865559
PG17 -20851.025881  14759.595675  -6640.030480   -117.923712
PG19 -19744.753381  17928.739462   -237.586713   -452.660665
PG20  14850.434394  21095.953511  -6568.225621    502.501850
PG21  26261.733103   2611.976691  -2245.927462   -422.734101
PG22 -10211.059555 -24504.773629    824.508409   -314.000835
PG23 -10789.364834 -11474.131903  21636.606796   -218.720874
PG24  15987.927314  14410.801272 -15857.944978    -46.941203
PG25  15999.784527  13416.023043  16384.981781   -549.250364
PG26   7546.075254 -17649.865104  18295.144714   -227.226015
PG27  10167.949857 -22073.095725 -10472.104945    368.953568
PG28 -14064.738108   2897.164019 -21720.929804    694.666705
PG29  15934.055911   3802.166708  20890.519860    486.447336
PG30 -24936.601539    331.616297  -9352.041835     97.461300
PG31  17644.180111  -8647.627586  18103.005336    137.261021
PG32  20429.232775 -15139.841915  -7509.928426   -529.811888
PJ01 -25249.759735  26187.236260  26430.040365    -73.841145
PJ02 -26538.450352  14793.458730 -24908.115248     -0.024883
PJ03 -25959.386175  32442.295005  -2512.577365    -16.303373
PR01   9810.751209 -17135.388999 -16157.993197     22.982880
PR02   2124.293509 -25287.839381   2359.876173    298.516139
PR03  -6415.131806 -17065.646180  17857.754395    125.968534
PR04 -11186.203864   1590.499903  22884.026035    252.376284
PR05  -9316.508614  18504.239208  14867.264490   -259.796720
PR06  -1297.391325  25293.576478  -3173.139398    128.258536
PR07   6508.924278  16820.407169 -18022.273465    -31.807056
PR08  11105.902880   -846.602723 -22898.555342     38.309241
PR09   6201.465502  16250.057774 -18623.414323     44.052906
PR10  18753.507182  16830.006614  -3734.382883     19.790436
PR11  20173.863540   7385.815670  13733.654501    -23.368952
PR13  -7204.077258 -16155.574051  18355.666518     -8.154910
PR14 -18710.636184 -16885.749471   3957.753533     25.220662
PR15 -20835.098302 -10016.653732 -10658.462230     -7.169840
PR16 -10080.168395   5946.199616 -22677.900896     87.177173
PR17 -11126.832252  -6446.779395 -22008.590871    114.486753
PR18 -22640.873854   3804.075813 -11168.757103    187.232526
PR19 -21854.490356  11577.129414   6264.634890    -46.546794
PR20  -7265.837151  12924.229171  20785.688765   -329.655992
PR21  11390.897729   6208.592578  21973.291932     26.438718
PR22  23105.318872  -4761.750086   9539.571883    -24.252448
PR23  19826.536240 -12856.279466  -9597.571688    140.126510
PR24   6213.378226 -12926.134382 -21106.361606   -163.319352
PR26  -7246.375047  13142.377171  20636.038934      3.424162
EOF
